HAWK-11B                
1 62379U 24247C   26068.44730104  .00009093  00000+0  32842-3 0  9993
2 62379  45.0161 115.7610 0004690 333.0326  27.0314 15.28847070 67738
STARLINK-34311          
1 64206U 25117D   26068.24299080  .00033166  00000+0  11270-2 0  9991
2 64206  53.1622  41.9398 0001292  81.7614 278.3534 15.30197645 44487
